[{"OBJECT_NAME":"HULIANWANG DIGUI-33","OBJECT_ID":"2025-121D","EPOCH":"2026-03-29T03:21:05.806656","MEAN_MOTION":13.24409072,"ECCENTRICITY":0.0001899,"INCLINATION":86.5014,"RA_OF_ASC_NODE":40.5974,"ARG_OF_PERICENTER":70.5565,"MEAN_ANOMALY":289.5774,"EPHEMERIS_TYPE":0,"CLASSIFICATION_TYPE":"U","NORAD_CAT_ID":64286,"ELEMENT_SET_NO":999,"REV_AT_EPOCH":3956,"BSTAR":0.00012466,"MEAN_MOTION_DOT":6.8e-7,"MEAN_MOTION_DDOT":0},{"OBJECT_NAME":"HULIANWANG DIGUI-34","OBJECT_ID":"2025-121E","EPOCH":"2026-03-29T03:10:18.693120","MEAN_MOTION":13.24408569,"ECCENTRICITY":0.0001851,"INCLINATION":86.4991,"RA_OF_ASC_NODE":40.5268,"ARG_OF_PERICENTER":61.231,"MEAN_ANOMALY":298.901,"EPHEMERIS_TYPE":0,"CLASSIFICATION_TYPE":"U","NORAD_CAT_ID":64287,"ELEMENT_SET_NO":999,"REV_AT_EPOCH":3956,"BSTAR":0.00012061,"MEAN_MOTION_DOT":6.6e-7,"MEAN_MOTION_DDOT":0},{"OBJECT_NAME":"HULIANWANG DIGUI-35","OBJECT_ID":"2025-159A","EPOCH":"2026-03-29T04:10:46.806240","MEAN_MOTION":13.2441902,"ECCENTRICITY":0.0001408,"INCLINATION":86.4938,"RA_OF_ASC_NODE":309.4851,"ARG_OF_PERICENTER":95.9511,"MEAN_ANOMALY":264.1784,"EPHEMERIS_TYPE":0,"CLASSIFICATION_TYPE":"U","NORAD_CAT_ID":64956,"ELEMENT_SET_NO":999,"REV_AT_EPOCH":3253,"BSTAR":0.00017916,"MEAN_MOTION_DOT":9.2e-7,"MEAN_MOTION_DDOT":0},{"OBJECT_NAME":"HULIANWANG DIGUI-36","OBJECT_ID":"2025-159B","EPOCH":"2026-03-29T03:59:33.346752","MEAN_MOTION":13.24421651,"ECCENTRICITY":0.000139,"INCLINATION":86.4957,"RA_OF_ASC_NODE":309.5299,"ARG_OF_PERICENTER":92.8119,"MEAN_ANOMALY":267.3174,"EPHEMERIS_TYPE":0,"CLASSIFICATION_TYPE":"U","NORAD_CAT_ID":64957,"ELEMENT_SET_NO":999,"REV_AT_EPOCH":3253,"BSTAR":0.00015692,"MEAN_MOTION_DOT":8.2e-7,"MEAN_MOTION_DDOT":0},{"OBJECT_NAME":"HULIANWANG DIGUI-37","OBJECT_ID":"2025-159C","EPOCH":"2026-03-29T03:48:42.287328","MEAN_MOTION":13.244212,"ECCENTRICITY":0.0001331,"INCLINATION":86.4899,"RA_OF_ASC_NODE":309.3809,"ARG_OF_PERICENTER":89.2778,"MEAN_ANOMALY":270.8508,"EPHEMERIS_TYPE":0,"CLASSIFICATION_TYPE":"U","NORAD_CAT_ID":64958,"ELEMENT_SET_NO":999,"REV_AT_EPOCH":3253,"BSTAR":0.00013832,"MEAN_MOTION_DOT":7.4e-7,"MEAN_MOTION_DDOT":0},{"OBJECT_NAME":"HULIANWANG DIGUI-38","OBJECT_ID":"2025-159D","EPOCH":"2026-03-29T03:37:51.029184","MEAN_MOTION":13.24421372,"ECCENTRICITY":0.0001393,"INCLINATION":86.4958,"RA_OF_ASC_NODE":309.5228,"ARG_OF_PERICENTER":90.4351,"MEAN_ANOMALY":269.6943,"EPHEMERIS_TYPE":0,"CLASSIFICATION_TYPE":"U","NORAD_CAT_ID":64959,"ELEMENT_SET_NO":999,"REV_AT_EPOCH":3253,"BSTAR":8.5653e-5,"MEAN_MOTION_DOT":5.1e-7,"MEAN_MOTION_DDOT":0},{"OBJECT_NAME":"HULIANWANG DIGUI-39","OBJECT_ID":"2025-159E","EPOCH":"2026-03-29T03:26:56.913792","MEAN_MOTION":13.24421598,"ECCENTRICITY":0.0001429,"INCLINATION":86.4933,"RA_OF_ASC_NODE":309.4595,"ARG_OF_PERICENTER":90.1442,"MEAN_ANOMALY":269.9856,"EPHEMERIS_TYPE":0,"CLASSIFICATION_TYPE":"U","NORAD_CAT_ID":64960,"ELEMENT_SET_NO":999,"REV_AT_EPOCH":3253,"BSTAR":7.9503e-5,"MEAN_MOTION_DOT":4.9e-7,"MEAN_MOTION_DDOT":0},{"OBJECT_NAME":"HULIANWANG DIGUI-40","OBJECT_ID":"2025-162A","EPOCH":"2026-03-29T04:12:27.013824","MEAN_MOTION":13.29334115,"ECCENTRICITY":9.3e-5,"INCLINATION":49.999,"RA_OF_ASC_NODE":192.9329,"ARG_OF_PERICENTER":163.9085,"MEAN_ANOMALY":196.1816,"EPHEMERIS_TYPE":0,"CLASSIFICATION_TYPE":"U","NORAD_CAT_ID":65043,"ELEMENT_SET_NO":999,"REV_AT_EPOCH":3270,"BSTAR":0.00010621,"MEAN_MOTION_DOT":-7.5e-7,"MEAN_MOTION_DDOT":0},{"OBJECT_NAME":"HULIANWANG DIGUI-41","OBJECT_ID":"2025-162B","EPOCH":"2026-03-29T04:00:24.815232","MEAN_MOTION":13.29334592,"ECCENTRICITY":9.79e-5,"INCLINATION":49.9999,"RA_OF_ASC_NODE":192.9085,"ARG_OF_PERICENTER":162.6365,"MEAN_ANOMALY":197.454,"EPHEMERIS_TYPE":0,"CLASSIFICATION_TYPE":"U","NORAD_CAT_ID":65044,"ELEMENT_SET_NO":999,"REV_AT_EPOCH":3271,"BSTAR":0.00011186,"MEAN_MOTION_DOT":-7.2e-7,"MEAN_MOTION_DDOT":0},{"OBJECT_NAME":"HULIANWANG DIGUI-42","OBJECT_ID":"2025-162C","EPOCH":"2026-03-29T05:36:36.736128","MEAN_MOTION":13.29333972,"ECCENTRICITY":9.22e-5,"INCLINATION":49.9965,"RA_OF_ASC_NODE":192.5273,"ARG_OF_PERICENTER":165.9148,"MEAN_ANOMALY":194.1749,"EPHEMERIS_TYPE":0,"CLASSIFICATION_TYPE":"U","NORAD_CAT_ID":65045,"ELEMENT_SET_NO":999,"REV_AT_EPOCH":3272,"BSTAR":0.00010071,"MEAN_MOTION_DOT":-7.7e-7,"MEAN_MOTION_DDOT":0},{"OBJECT_NAME":"HULIANWANG DIGUI-43","OBJECT_ID":"2025-162D","EPOCH":"2026-03-29T03:36:16.279488","MEAN_MOTION":13.29335026,"ECCENTRICITY":9.09e-5,"INCLINATION":49.9982,"RA_OF_ASC_NODE":192.7884,"ARG_OF_PERICENTER":164.2717,"MEAN_ANOMALY":195.8184,"EPHEMERIS_TYPE":0,"CLASSIFICATION_TYPE":"U","NORAD_CAT_ID":65046,"ELEMENT_SET_NO":999,"REV_AT_EPOCH":3271,"BSTAR":9.2633e-5,"MEAN_MOTION_DOT":-8.1e-7,"MEAN_MOTION_DDOT":0},{"OBJECT_NAME":"HULIANWANG DIGUI-44","OBJECT_ID":"2025-162E","EPOCH":"2026-03-29T03:23:38.184288","MEAN_MOTION":13.29342466,"ECCENTRICITY":4.66e-5,"INCLINATION":50.0009,"RA_OF_ASC_NODE":192.7954,"ARG_OF_PERICENTER":53.187,"MEAN_ANOMALY":306.9045,"EPHEMERIS_TYPE":0,"CLASSIFICATION_TYPE":"U","NORAD_CAT_ID":65047,"ELEMENT_SET_NO":999,"REV_AT_EPOCH":3272,"BSTAR":7.4442e-5,"MEAN_MOTION_DOT":-8.9e-7,"MEAN_MOTION_DDOT":0},{"OBJECT_NAME":"HULIANWANG DIGUI-45","OBJECT_ID":"2025-162F","EPOCH":"2026-03-29T03:12:16.509888","MEAN_MOTION":13.29334949,"ECCENTRICITY":9.66e-5,"INCLINATION":50.0039,"RA_OF_ASC_NODE":192.8133,"ARG_OF_PERICENTER":163.2794,"MEAN_ANOMALY":196.811,"EPHEMERIS_TYPE":0,"CLASSIFICATION_TYPE":"U","NORAD_CAT_ID":65048,"ELEMENT_SET_NO":999,"REV_AT_EPOCH":3271,"BSTAR":0.00010507,"MEAN_MOTION_DOT":-7.5e-7,"MEAN_MOTION_DDOT":0},{"OBJECT_NAME":"HULIANWANG DIGUI-46","OBJECT_ID":"2025-162G","EPOCH":"2026-03-29T03:00:14.905728","MEAN_MOTION":13.29334867,"ECCENTRICITY":9.76e-5,"INCLINATION":50.0057,"RA_OF_ASC_NODE":192.8058,"ARG_OF_PERICENTER":165.0173,"MEAN_ANOMALY":195.0728,"EPHEMERIS_TYPE":0,"CLASSIFICATION_TYPE":"U","NORAD_CAT_ID":65049,"ELEMENT_SET_NO":999,"REV_AT_EPOCH":3271,"BSTAR":0.00011441,"MEAN_MOTION_DOT":-7.1e-7,"MEAN_MOTION_DDOT":0},{"OBJECT_NAME":"HULIANWANG DIGUI-47","OBJECT_ID":"2025-162H","EPOCH":"2026-03-29T04:36:28.217664","MEAN_MOTION":13.29334745,"ECCENTRICITY":9.61e-5,"INCLINATION":50.0021,"RA_OF_ASC_NODE":192.4242,"ARG_OF_PERICENTER":166.5633,"MEAN_ANOMALY":193.5264,"EPHEMERIS_TYPE":0,"CLASSIFICATION_TYPE":"U","NORAD_CAT_ID":65050,"ELEMENT_SET_NO":999,"REV_AT_EPOCH":3272,"BSTAR":0.00012749,"MEAN_MOTION_DOT":-6.5e-7,"MEAN_MOTION_DDOT":0},{"OBJECT_NAME":"HULIANWANG DIGUI-48","OBJECT_ID":"2025-162J","EPOCH":"2026-03-29T04:24:29.270304","MEAN_MOTION":13.29334187,"ECCENTRICITY":9.38e-5,"INCLINATION":50.0031,"RA_OF_ASC_NODE":192.3998,"ARG_OF_PERICENTER":164.7379,"MEAN_ANOMALY":195.3521,"EPHEMERIS_TYPE":0,"CLASSIFICATION_TYPE":"U","NORAD_CAT_ID":65051,"ELEMENT_SET_NO":999,"REV_AT_EPOCH":3272,"BSTAR":0.00010966,"MEAN_MOTION_DOT":-7.3e-7,"MEAN_MOTION_DDOT":0}]
