HULIANWANG DIGUI-33     
1 64286U 25121D   26088.13965054  .00000068  00000+0  12466-3 0  9999
2 64286  86.5014  40.5974 0001899  70.5565 289.5774 13.24409072 39563
HULIANWANG DIGUI-34     
1 64287U 25121E   26088.13216080  .00000066  00000+0  12061-3 0  9997
2 64287  86.4991  40.5268 0001851  61.2310 298.9010 13.24408569 39563
HULIANWANG DIGUI-35     
1 64956U 25159A   26088.17415285  .00000092  00000+0  17916-3 0  9996
2 64956  86.4938 309.4851 0001408  95.9511 264.1784 13.24419020 32534
HULIANWANG DIGUI-36     
1 64957U 25159B   26088.16635818  .00000082  00000+0  15692-3 0  9990
2 64957  86.4957 309.5299 0001390  92.8119 267.3174 13.24421651 32534
HULIANWANG DIGUI-37     
1 64958U 25159C   26088.15882277  .00000074  00000+0  13832-3 0  9998
2 64958  86.4899 309.3809 0001331  89.2778 270.8508 13.24421200 32531
HULIANWANG DIGUI-38     
1 64959U 25159D   26088.15128506  .00000051  00000+0  85653-4 0  9993
2 64959  86.4958 309.5228 0001393  90.4351 269.6943 13.24421372 32533
HULIANWANG DIGUI-39     
1 64960U 25159E   26088.14371428  .00000049  00000+0  79503-4 0  9991
2 64960  86.4933 309.4595 0001429  90.1442 269.9856 13.24421598 32538
HULIANWANG DIGUI-40     
1 65043U 25162A   26088.17531266 -.00000075  00000+0  10621-3 0  9994
2 65043  49.9990 192.9329 0000930 163.9085 196.1816 13.29334115 32705
HULIANWANG DIGUI-41     
1 65044U 25162B   26088.16695388 -.00000072  00000+0  11186-3 0  9994
2 65044  49.9999 192.9085 0000979 162.6365 197.4540 13.29334592 32712
HULIANWANG DIGUI-42     
1 65045U 25162C   26088.23375852 -.00000077  00000+0  10071-3 0  9991
2 65045  49.9965 192.5273 0000922 165.9148 194.1749 13.29333972 32721
HULIANWANG DIGUI-43     
1 65046U 25162D   26088.15018842 -.00000081  00000+0  92633-4 0  9996
2 65046  49.9982 192.7884 0000909 164.2717 195.8184 13.29335026 32712
HULIANWANG DIGUI-44     
1 65047U 25162E   26088.14141417 -.00000089  00000+0  74442-4 0  9997
2 65047  50.0009 192.7954 0000466  53.1870 306.9045 13.29342466 32726
HULIANWANG DIGUI-45     
1 65048U 25162F   26088.13352442 -.00000075  00000+0  10507-3 0  9995
2 65048  50.0039 192.8133 0000966 163.2794 196.8110 13.29334949 32718
HULIANWANG DIGUI-46     
1 65049U 25162G   26088.12517252 -.00000071  00000+0  11441-3 0  9991
2 65049  50.0057 192.8058 0000976 165.0173 195.0728 13.29334867 32712
HULIANWANG DIGUI-47     
1 65050U 25162H   26088.19199326 -.00000065  00000+0  12749-3 0  9993
2 65050  50.0021 192.4242 0000961 166.5633 193.5264 13.29334745 32721
HULIANWANG DIGUI-48     
1 65051U 25162J   26088.18367211 -.00000073  00000+0  10966-3 0  9991
2 65051  50.0031 192.3998 0000938 164.7379 195.3521 13.29334187 32727
